LEMUR-2-ZACHARY         
1 42845U 17042W   17345.80298685  .00000720  00000-0  76711-4 0  9998
2 42845  97.6032 250.1712 0014577 102.3616 257.9236 14.91743614 22427
